{
    "links": {
        "self": "http://www.neowsapp.com/rest/v1/neo/3836133?api_key=iIulBulltgU6a56xZRHN4H3l9WmuAYTsLGpBGhQ2"
    },
    "id": "3836133",
    "neo_reference_id": "3836133",
    "name": "(2018 VU5)",
    "designation": "2018 VU5",
    "nasa_jpl_url": "http://ssd.jpl.nasa.gov/sbdb.cgi?sstr=3836133",
    "absolute_magnitude_h": 26.2,
    "estimated_diameter": {
        "kilometers": {
            "estimated_diameter_min": 0.0152951935,
            "estimated_diameter_max": 0.0342010925
        },
        "meters": {
            "estimated_diameter_min": 15.2951935344,
            "estimated_diameter_max": 34.201092472
        },
        "miles": {
            "estimated_diameter_min": 0.0095039897,
            "estimated_diameter_max": 0.021251567
        },
        "feet": {
            "estimated_diameter_min": 50.1810827555,
            "estimated_diameter_max": 112.2083122258
        }
    },
    "is_potentially_hazardous_asteroid": false,
    "close_approach_data": [
        {
            "close_approach_date": "2018-11-06",
            "close_approach_date_full": "2018-Nov-06 22:43",
            "epoch_date_close_approach": 1541544180000,
            "relative_velocity": {
                "kilometers_per_second": "10.0675146034",
                "kilometers_per_hour": "36243.0525722472",
                "miles_per_hour": "22520.0234163499"
            },
            "miss_distance": {
                "astronomical": "0.0201528732",
                "lunar": "7.8394676748",
                "kilometers": "3014826.905100084",
                "miles": "1873326.5715217992"
            },
            "orbiting_body": "Earth"
        }
    ],
    "orbital_data": {
        "orbit_id": "5",
        "orbit_determination_date": "2019-07-27 14:01:23",
        "first_observation_date": "2018-11-08",
        "last_observation_date": "2018-11-15",
        "data_arc_in_days": 7,
        "observations_used": 45,
        "orbit_uncertainty": "7",
        "minimum_orbit_intersection": ".0134334",
        "jupiter_tisserand_invariant": "3.742",
        "epoch_osculation": "2459000.5",
        "eccentricity": ".5058804591073257",
        "semi_major_axis": "1.927997364905276",
        "inclination": "6.84284894975795",
        "ascending_node_longitude": "227.1412989047488",
        "orbital_period": "977.8181198301909",
        "perihelion_distance": ".9526611727892808",
        "perihelion_argument": "144.2561587745114",
        "aphelion_distance": "2.903333557021271",
        "perihelion_time": "2459381.720850696547",
        "mean_anomaly": "219.6472048660847",
        "mean_motion": ".3681666280253817",
        "equinox": "J2000",
        "orbit_class": {
            "orbit_class_type": "APO",
            "orbit_class_description": "Near-Earth asteroid orbits which cross the Earth’s orbit similar to that of 1862 Apollo",
            "orbit_class_range": "a (semi-major axis) > 1.0 AU; q (perihelion) < 1.017 AU"
        }
    },
    "is_sentry_object": false
}